{"type": "FeatureCollection", "features": [{"type": "Feature", "properties": {"norad_id": 32275, "name": "COSMOS 2433 (720)", "group": "glo-ops", "lat": 52.98309353064085, "lon": -1.0865106187982745, "alt_km": 19137.29672894244, "timestamp": "2025-12-16T10:53:45.730234+00:00", "meta": {"OBJECT_NAME": "COSMOS 2433 (720)", "OBJECT_ID": "2007-052A", "EPOCH": "2025-12-14T23:11:38.718240", "MEAN_MOTION": 2.13103955, "ECCENTRICITY": 0.00054201, "INCLINATION": 65.6819, "RA_OF_ASC_NODE": 322.1305, "ARG_OF_PERICENTER": 253.5649, "MEAN_ANOMALY": 106.3736, "EPHEMERIS_TYPE": 0, "CLASSIFICATION_TYPE": "U", "NORAD_CAT_ID": 32275, "ELEMENT_SET_NO": 999, "REV_AT_EPOCH": 14113, "BSTAR": 0, "MEAN_MOTION_DOT": -6.5e-07, "MEAN_MOTION_DDOT": 0}, "tle": {"line1": "1 32275U 07052A   25348.96642035 -.00000065  00000+0  00000+0 0  9990", "line2": "2 32275  65.6819 322.1305 0005420 253.5649 106.3736  2.13103955141132"}}, "geometry": {"type": "Point", "coordinates": [-1.0865106187982745, 52.98309353064085]}}, {"type": "Feature", "properties": {"norad_id": 32276, "name": "COSMOS 2432 (719)", "group": "glo-ops", "lat": 5.215668190654142, "lon": -35.44348532185304, "alt_km": 19112.510847963902, "timestamp": "2025-12-16T10:53:45.730257+00:00", "meta": {"OBJECT_NAME": "COSMOS 2432 (719)", "OBJECT_ID": "2007-052B", "EPOCH": "2025-12-15T06:31:38.583840", "MEAN_MOTION": 2.13103103, "ECCENTRICITY": 0.00112605, "INCLINATION": 65.6973, "RA_OF_ASC_NODE": 322.2446, "ARG_OF_PERICENTER": 312.4858, "MEAN_ANOMALY": 226.3212, "EPHEMERIS_TYPE": 0, "CLASSIFICATION_TYPE": "U", "NORAD_CAT_ID": 32276, "ELEMENT_SET_NO": 999, "REV_AT_EPOCH": 14116, "BSTAR": 0, "MEAN_MOTION_DOT": -6.6e-07, "MEAN_MOTION_DDOT": 0}, "tle": {"line1": "1 32276U 07052B   25349.27197435 -.00000066  00000+0  00000+0 0  9996", "line2": "2 32276  65.6973 322.2446 0011260 312.4858 226.3212  2.13103103141167"}}, "geometry": {"type": "Point", "coordinates": [-35.44348532185304, 5.215668190654142]}}, {"type": "Feature", "properties": {"norad_id": 32393, "name": "COSMOS 2434 (721)", "group": "glo-ops", "lat": -42.30642294492027, "lon": 172.10083644641716, "alt_km": 19140.735661538773, "timestamp": "2025-12-16T10:53:45.730272+00:00", "meta": {"OBJECT_NAME": "COSMOS 2434 (721)", "OBJECT_ID": "2007-065A", "EPOCH": "2025-12-15T08:26:38.759136", "MEAN_MOTION": 2.13101367, "ECCENTRICITY": 0.00044341, "INCLINATION": 64.3148, "RA_OF_ASC_NODE": 198.1152, "ARG_OF_PERICENTER": 71.4602, "MEAN_ANOMALY": 114.7825, "EPHEMERIS_TYPE": 0, "CLASSIFICATION_TYPE": "U", "NORAD_CAT_ID": 32393, "ELEMENT_SET_NO": 999, "REV_AT_EPOCH": 13985, "BSTAR": 0, "MEAN_MOTION_DOT": 1.05e-06, "MEAN_MOTION_DDOT": 0}, "tle": {"line1": "1 32393U 07065A   25349.35183749  .00000105  00000+0  00000+0 0  9995", "line2": "2 32393  64.3148 198.1152 0004434  71.4602 114.7825  2.13101367139858"}}, "geometry": {"type": "Point", "coordinates": [172.10083644641716, -42.30642294492027]}}, {"type": "Feature", "properties": {"norad_id": 32395, "name": "COSMOS 2436 (723)", "group": "glo-ops", "lat": 63.853963171831545, "lon": -83.2937829354346, "alt_km": 19112.133650454613, "timestamp": "2025-12-16T10:53:45.730285+00:00", "meta": {"OBJECT_NAME": "COSMOS 2436 (723)", "OBJECT_ID": "2007-065C", "EPOCH": "2025-12-15T21:01:07.375584", "MEAN_MOTION": 2.13100032, "ECCENTRICITY": 0.00177255, "INCLINATION": 64.3235, "RA_OF_ASC_NODE": 198.1677, "ARG_OF_PERICENTER": 8.9323, "MEAN_ANOMALY": 352.3192, "EPHEMERIS_TYPE": 0, "CLASSIFICATION_TYPE": "U", "NORAD_CAT_ID": 32395, "ELEMENT_SET_NO": 999, "REV_AT_EPOCH": 13982, "BSTAR": 0, "MEAN_MOTION_DOT": 1.08e-06, "MEAN_MOTION_DDOT": 0}, "tle": {"line1": "1 32395U 07065C   25349.87577981  .00000108  00000+0  00000+0 0  9992", "line2": "2 32395  64.3235 198.1677 0017725   8.9323 352.3192  2.13100032139823"}}, "geometry": {"type": "Point", "coordinates": [-83.2937829354346, 63.853963171831545]}}, {"type": "Feature", "properties": {"norad_id": 36111, "name": "COSMOS 2456 (730)", "group": "glo-ops", "lat": 58.96654314986529, "lon": -153.8322443721873, "alt_km": 19131.116402772885, "timestamp": "2025-12-16T10:53:45.730297+00:00", "meta": {"OBJECT_NAME": "COSMOS 2456 (730)", "OBJECT_ID": "2009-070A", "EPOCH": "2025-12-14T09:56:44.941056", "MEAN_MOTION": 2.13103612, "ECCENTRICITY": 0.00031175, "INCLINATION": 64.9016, "RA_OF_ASC_NODE": 77.2804, "ARG_OF_PERICENTER": 298.1789, "MEAN_ANOMALY": 45.9889, "EPHEMERIS_TYPE": 0, "CLASSIFICATION_TYPE": "U", "NORAD_CAT_ID": 36111, "ELEMENT_SET_NO": 999, "REV_AT_EPOCH": 12448, "BSTAR": 0, "MEAN_MOTION_DOT": -5.7e-07, "MEAN_MOTION_DDOT": 0}, "tle": {"line1": "1 36111U 09070A   25348.41440904 -.00000057  00000+0  00000+0 0  9997", "line2": "2 36111  64.9016  77.2804 0003117 298.1789  45.9889  2.13103612124485"}}, "geometry": {"type": "Point", "coordinates": [-153.8322443721873, 58.96654314986529]}}, {"type": "Feature", "properties": {"norad_id": 36112, "name": "COSMOS 2457 (733)", "group": "glo-ops", "lat": -50.22852915151693, "lon": -68.70263309118987, "alt_km": 19133.43612054672, "timestamp": "2025-12-16T10:53:45.730308+00:00", "meta": {"OBJECT_NAME": "COSMOS 2457 (733)", "OBJECT_ID": "2009-070B", "EPOCH": "2025-12-15T22:24:14.107104", "MEAN_MOTION": 2.13100894, "ECCENTRICITY": 0.00046417, "INCLINATION": 64.8877, "RA_OF_ASC_NODE": 77.076, "ARG_OF_PERICENTER": 159.3644, "MEAN_ANOMALY": 39.3126, "EPHEMERIS_TYPE": 0, "CLASSIFICATION_TYPE": "U", "NORAD_CAT_ID": 36112, "ELEMENT_SET_NO": 999, "REV_AT_EPOCH": 12452, "BSTAR": 0, "MEAN_MOTION_DOT": -5.8e-07, "MEAN_MOTION_DDOT": 0}, "tle": {"line1": "1 36112U 09070B   25349.93349661 -.00000058  00000+0  00000+0 0  9995", "line2": "2 36112  64.8877  77.0760 0004641 159.3644  39.3126  2.13100894124525"}}, "geometry": {"type": "Point", "coordinates": [-68.70263309118987, -50.22852915151693]}}, {"type": "Feature", "properties": {"norad_id": 36402, "name": "COSMOS 2460 (732)", "group": "glo-ops", "lat": -50.18138114803719, "lon": 173.7404802399346, "alt_km": 19129.986073907246, "timestamp": "2025-12-16T10:53:45.730320+00:00", "meta": {"OBJECT_NAME": "COSMOS 2460 (732)", "OBJECT_ID": "2010-007C", "EPOCH": "2025-12-15T05:47:00.728160", "MEAN_MOTION": 2.13106127, "ECCENTRICITY": 0.00026664, "INCLINATION": 65.5278, "RA_OF_ASC_NODE": 320.6882, "ARG_OF_PERICENTER": 275.3459, "MEAN_ANOMALY": 111.58, "EPHEMERIS_TYPE": 0, "CLASSIFICATION_TYPE": "U", "NORAD_CAT_ID": 36402, "ELEMENT_SET_NO": 999, "REV_AT_EPOCH": 12281, "BSTAR": 0, "MEAN_MOTION_DOT": -6.7e-07, "MEAN_MOTION_DDOT": 0}, "tle": {"line1": "1 36402U 10007C   25349.24098065 -.00000067  00000+0  00000+0 0  9992", "line2": "2 36402  65.5278 320.6882 0002666 275.3459 111.5800  2.13106127122817"}}, "geometry": {"type": "Point", "coordinates": [173.7404802399346, -50.18138114803719]}}, {"type": "Feature", "properties": {"norad_id": 37867, "name": "COSMOS 2476 (744)", "group": "glo-ops", "lat": 15.697199215702623, "lon": 86.5177061463209, "alt_km": 19177.60230245825, "timestamp": "2025-12-16T10:53:45.730331+00:00", "meta": {"OBJECT_NAME": "COSMOS 2476 (744)", "OBJECT_ID": "2011-064A", "EPOCH": "2025-12-15T11:25:46.908768", "MEAN_MOTION": 2.1310152, "ECCENTRICITY": 0.00240578, "INCLINATION": 65.1644, "RA_OF_ASC_NODE": 79.0785, "ARG_OF_PERICENTER": 234.0946, "MEAN_ANOMALY": 112.9924, "EPHEMERIS_TYPE": 0, "CLASSIFICATION_TYPE": "U", "NORAD_CAT_ID": 37867, "ELEMENT_SET_NO": 999, "REV_AT_EPOCH": 10984, "BSTAR": 0, "MEAN_MOTION_DOT": -5.6e-07, "MEAN_MOTION_DDOT": 0}, "tle": {"line1": "1 37867U 11064A   25349.47623737 -.00000056  00000+0  00000+0 0  9995", "line2": "2 37867  65.1644  79.0785 0024057 234.0946 112.9924  2.13101520109846"}}, "geometry": {"type": "Point", "coordinates": [86.5177061463209, 15.697199215702623]}}, {"type": "Feature", "properties": {"norad_id": 37868, "name": "COSMOS 2477 (745)", "group": "glo-ops", "lat": -16.32861605325708, "lon": -93.08813179611359, "alt_km": 19089.004550867827, "timestamp": "2025-12-16T10:53:45.730343+00:00", "meta": {"OBJECT_NAME": "COSMOS 2477 (745)", "OBJECT_ID": "2011-064B", "EPOCH": "2025-12-15T06:06:12.573216", "MEAN_MOTION": 2.1310289, "ECCENTRICITY": 0.00211455, "INCLINATION": 65.1707, "RA_OF_ASC_NODE": 79.1637, "ARG_OF_PERICENTER": 234.5873, "MEAN_ANOMALY": 123.1925, "EPHEMERIS_TYPE": 0, "CLASSIFICATION_TYPE": "U", "NORAD_CAT_ID": 37868, "ELEMENT_SET_NO": 999, "REV_AT_EPOCH": 10983, "BSTAR": 0, "MEAN_MOTION_DOT": -5.6e-07, "MEAN_MOTION_DDOT": 0}, "tle": {"line1": "1 37868U 11064B   25349.25431219 -.00000056  00000+0  00000+0 0  9994", "line2": "2 37868  65.1707  79.1637 0021145 234.5873 123.1925  2.13102890109838"}}, "geometry": {"type": "Point", "coordinates": [-93.08813179611359, -16.32861605325708]}}, {"type": "Feature", "properties": {"norad_id": 37869, "name": "COSMOS 2475 (743)", "group": "glo-ops", "lat": 23.616776261698114, "lon": -112.5059763807974, "alt_km": 19132.81517135258, "timestamp": "2025-12-16T10:53:45.730354+00:00", "meta": {"OBJECT_NAME": "COSMOS 2475 (743)", "OBJECT_ID": "2011-064C", "EPOCH": "2025-12-15T18:53:44.988864", "MEAN_MOTION": 2.13101578, "ECCENTRICITY": 0.00263291, "INCLINATION": 65.178, "RA_OF_ASC_NODE": 79.1657, "ARG_OF_PERICENTER": 248.6854, "MEAN_ANOMALY": 113.9368, "EPHEMERIS_TYPE": 0, "CLASSIFICATION_TYPE": "U", "NORAD_CAT_ID": 37869, "ELEMENT_SET_NO": 999, "REV_AT_EPOCH": 10986, "BSTAR": 0, "MEAN_MOTION_DOT": -5.6e-07, "MEAN_MOTION_DDOT": 0}, "tle": {"line1": "1 37869U 11064C   25349.78732626 -.00000056  00000+0  00000+0 0  9999", "line2": "2 37869  65.1780  79.1657 0026329 248.6854 113.9368  2.13101578109869"}}, "geometry": {"type": "Point", "coordinates": [-112.5059763807974, 23.616776261698114]}}]}